{
  "type": "FeatureCollection",
  "features": [
    {
      "type": "Feature",
      "properties": {
        "norad_id": 29268,
        "name": "ARIRANG-2 (KOMPSAT-2)",
        "group": "resource",
        "lat": 31.95611700239376,
        "lon": -1.241501329587966,
        "alt_km": 686.2361074145874,
        "timestamp": "2025-12-11T07:02:23.390235+00:00",
        "meta_object_name": "ARIRANG-2 (KOMPSAT-2)",
        "meta_object_id": "2006-031A",
        "meta_epoch": "2025-12-11T00:32:39.554592",
        "meta_mean_motion": 14.64492131,
        "meta_eccentricity": 0.00136272,
        "meta_inclination": 97.8261,
        "meta_ra_of_asc_node": 173.5793,
        "meta_arg_of_pericenter": 315.202,
        "meta_mean_anomaly": 206.4094,
        "meta_ephemeris_type": 0,
        "meta_classification_type": "U",
        "meta_norad_cat_id": 29268,
        "meta_element_set_no": 999,
        "meta_rev_at_epoch": 3393,
        "meta_bstar": 0.00017604383,
        "meta_mean_motion_dot": 8.89e-06,
        "meta_mean_motion_ddot": 0,
        "tle_line1": "1 29268U 06031A   25345.02268003  .00000889  00000+0  17604-3 0  9992",
        "tle_line2": "2 29268  97.8261 173.5793 0013627 315.2020 206.4094 14.64492131 33937"
      },
      "geometry": {
        "type": "Point",
        "coordinates": [
          -1.241501329587966,
          31.95611700239376
        ]
      }
    },
    {
      "type": "Feature",
      "properties": {
        "norad_id": 29709,
        "name": "LAPAN-TUBSAT",
        "group": "resource",
        "lat": -27.875382950116578,
        "lon": -20.24604816455448,
        "alt_km": 619.9842899916766,
        "timestamp": "2025-12-11T07:02:23.390245+00:00",
        "meta_object_name": "LAPAN-TUBSAT",
        "meta_object_id": "2007-001A",
        "meta_epoch": "2025-12-10T23:05:03.603264",
        "meta_mean_motion": 14.85666464,
        "meta_eccentricity": 0.00137034,
        "meta_inclination": 98.126,
        "meta_ra_of_asc_node": 335.0815,
        "meta_arg_of_pericenter": 79.1908,
        "meta_mean_anomaly": 281.0849,
        "meta_ephemeris_type": 0,
        "meta_classification_type": "U",
        "meta_norad_cat_id": 29709,
        "meta_element_set_no": 999,
        "meta_rev_at_epoch": 2320,
        "meta_bstar": 0.0001140568,
        "meta_mean_motion_dot": 9.33e-06,
        "meta_mean_motion_ddot": 0,
        "tle_line1": "1 29709U 07001A   25344.96184726  .00000933  00000+0  11406-3 0  9995",
        "tle_line2": "2 29709  98.1260 335.0815 0013703  79.1908 281.0849 14.85666464 23207"
      },
      "geometry": {
        "type": "Point",
        "coordinates": [
          -20.24604816455448,
          -27.875382950116578
        ]
      }
    },
    {
      "type": "Feature",
      "properties": {
        "norad_id": 31113,
        "name": "HAIYANG-1B",
        "group": "resource",
        "lat": 37.5511821128237,
        "lon": 156.09925232363003,
        "alt_km": 787.5221739572453,
        "timestamp": "2025-12-11T07:02:23.390256+00:00",
        "meta_object_name": "HAIYANG-1B",
        "meta_object_id": "2007-010A",
        "meta_epoch": "2025-12-10T16:57:17.951328",
        "meta_mean_motion": 14.30963969,
        "meta_eccentricity": 0.00143447,
        "meta_inclination": 98.3313,
        "meta_ra_of_asc_node": 329.0686,
        "meta_arg_of_pericenter": 43.634,
        "meta_mean_anomaly": 316.5975,
        "meta_ephemeris_type": 0,
        "meta_classification_type": "U",
        "meta_norad_cat_id": 31113,
        "meta_element_set_no": 999,
        "meta_rev_at_epoch": 97367,
        "meta_bstar": 9.8309486e-05,
        "meta_mean_motion_dot": 2.17e-06,
        "meta_mean_motion_ddot": 0,
        "tle_line1": "1 31113U 07010A   25344.70645777  .00000217  00000+0  98309-4 0  9990",
        "tle_line2": "2 31113  98.3313 329.0686 0014344  43.6340 316.5975 14.30963969973676"
      },
      "geometry": {
        "type": "Point",
        "coordinates": [
          156.09925232363003,
          37.5511821128237
        ]
      }
    },
    {
      "type": "Feature",
      "properties": {
        "norad_id": 31598,
        "name": "COSMO-SKYMED 1",
        "group": "resource",
        "lat": -55.00263145214733,
        "lon": -20.731637616235805,
        "alt_km": 587.7713644233381,
        "timestamp": "2025-12-11T07:02:23.390267+00:00",
        "meta_object_name": "COSMO-SKYMED 1",
        "meta_object_id": "2007-023A",
        "meta_epoch": "2025-12-10T23:34:01.238592",
        "meta_mean_motion": 14.9574164,
        "meta_eccentricity": 0.00010806,
        "meta_inclination": 97.8835,
        "meta_ra_of_asc_node": 170.3697,
        "meta_arg_of_pericenter": 85.9013,
        "meta_mean_anomaly": 274.2331,
        "meta_ephemeris_type": 0,
        "meta_classification_type": "U",
        "meta_norad_cat_id": 31598,
        "meta_element_set_no": 999,
        "meta_rev_at_epoch": 164,
        "meta_bstar": 0.00051750748,
        "meta_mean_motion_dot": 5.709e-05,
        "meta_mean_motion_ddot": 0,
        "tle_line1": "1 31598U 07023A   25344.98195878  .00005709  00000+0  51751-3 0  9993",
        "tle_line2": "2 31598  97.8835 170.3697 0001080  85.9013 274.2331 14.95741640  1640"
      },
      "geometry": {
        "type": "Point",
        "coordinates": [
          -20.731637616235805,
          -55.00263145214733
        ]
      }
    },
    {
      "type": "Feature",
      "properties": {
        "norad_id": 31698,
        "name": "TERRASAR-X",
        "group": "resource",
        "lat": 49.33926285765272,
        "lon": 179.45349396085433,
        "alt_km": 502.9557339728053,
        "timestamp": "2025-12-11T07:02:23.390277+00:00",
        "meta_object_name": "TERRASAR-X",
        "meta_object_id": "2007-026A",
        "meta_epoch": "2025-12-10T13:04:49.433376",
        "meta_mean_motion": 15.19151507,
        "meta_eccentricity": 0.0001862,
        "meta_inclination": 97.446,
        "meta_ra_of_asc_node": 349.9579,
        "meta_arg_of_pericenter": 94.9214,
        "meta_mean_anomaly": 265.2234,
        "meta_ephemeris_type": 0,
        "meta_classification_type": "U",
        "meta_norad_cat_id": 31698,
        "meta_element_set_no": 999,
        "meta_rev_at_epoch": 2458,
        "meta_bstar": 9.1186e-05,
        "meta_mean_motion_dot": 1.848e-05,
        "meta_mean_motion_ddot": 0,
        "tle_line1": "1 31698U 07026A   25344.54501659  .00001848  00000+0  91186-4 0  9994",
        "tle_line2": "2 31698  97.4460 349.9579 0001862  94.9214 265.2234 15.19151507 24589"
      },
      "geometry": {
        "type": "Point",
        "coordinates": [
          179.45349396085433,
          49.33926285765272
        ]
      }
    },
    {
      "type": "Feature",
      "properties": {
        "norad_id": 32060,
        "name": "WORLDVIEW-1 (WV-1)",
        "group": "resource",
        "lat": 75.3979016185189,
        "lon": -47.353915388764015,
        "alt_km": 484.196709229931,
        "timestamp": "2025-12-11T07:02:23.390288+00:00",
        "meta_object_name": "WORLDVIEW-1 (WV-1)",
        "meta_object_id": "2007-041A",
        "meta_epoch": "2025-12-10T17:59:24.935424",
        "meta_mean_motion": 15.24635328,
        "meta_eccentricity": 7.278e-05,
        "meta_inclination": 97.3835,
        "meta_ra_of_asc_node": 102.2585,
        "meta_arg_of_pericenter": 105.7196,
        "meta_mean_anomaly": 254.4122,
        "meta_ephemeris_type": 0,
        "meta_classification_type": "U",
        "meta_norad_cat_id": 32060,
        "meta_element_set_no": 999,
        "meta_rev_at_epoch": 1417,
        "meta_bstar": 0.00054127505,
        "meta_mean_motion_dot": 0.00013301,
        "meta_mean_motion_ddot": 0,
        "tle_line1": "1 32060U 07041A   25344.74959416  .00013301  00000+0  54128-3 0  9996",
        "tle_line2": "2 32060  97.3835 102.2585 0000727 105.7196 254.4122 15.24635328 14178"
      },
      "geometry": {
        "type": "Point",
        "coordinates": [
          -47.353915388764015,
          75.3979016185189
        ]
      }
    },
    {
      "type": "Feature",
      "properties": {
        "norad_id": 32289,
        "name": "YAOGAN-3",
        "group": "resource",
        "lat": 63.05850203022282,
        "lon": -152.3458776516569,
        "alt_km": 591.6398972074085,
        "timestamp": "2025-12-11T07:02:23.390298+00:00",
        "meta_object_name": "YAOGAN-3",
        "meta_object_id": "2007-055A",
        "meta_epoch": "2025-12-11T00:04:27.662016",
        "meta_mean_motion": 14.89842198,
        "meta_eccentricity": 0.00012777,
        "meta_inclination": 97.8367,
        "meta_ra_of_asc_node": 11.6432,
        "meta_arg_of_pericenter": 73.1289,
        "meta_mean_anomaly": 287.0069,
        "meta_ephemeris_type": 0,
        "meta_classification_type": "U",
        "meta_norad_cat_id": 32289,
        "meta_element_set_no": 999,
        "meta_rev_at_epoch": 97783,
        "meta_bstar": 0.00036176875,
        "meta_mean_motion_dot": 3.42e-05,
        "meta_mean_motion_ddot": 0,
        "tle_line1": "1 32289U 07055A   25345.00309794  .00003420  00000+0  36177-3 0  9997",
        "tle_line2": "2 32289  97.8367  11.6432 0001277  73.1289 287.0069 14.89842198977830"
      },
      "geometry": {
        "type": "Point",
        "coordinates": [
          -152.3458776516569,
          63.05850203022282
        ]
      }
    }
  ]
}